STARLINK-32143          
1 60296U 24132U   26068.27515184 -.00000718  00000+0 -12131-4 0  9999
2 60296  53.1612  54.5906 0001289 100.8585 259.2561 15.30188061 91495
LUR-1                   
1 60506U 24149AQ  26068.79566301  .00009121  00000+0  32985-3 0  9998
2 60506  97.3790 148.4255 0002777 309.1571  50.9421 15.28658648 86785
